{
"type": "FeatureCollection",
"name": "P",
"crs": { "type": "name", "properties": { "name": "urn:ogc:def:crs:OGC:1.3:CRS84" } },
"features": [
{ "type": "Feature", "properties": { "PERIMETER": "198.91 m", "ENCLOSED_AREA": "0.002473 sq km", "LENGTH": "51.234 m", "宽度": "48.221 m", "name": "综合体北一门" }, "geometry": { "type": "Polygon", "coordinates": [ [ [ 113.644559777278047, 22.579981689943015 ], [ 113.645057908078755, 22.57997348490596 ], [ 113.645049591684739, 22.579538107004318 ], [ 113.644551462445776, 22.57954631186611 ], [ 113.644559777278047, 22.579981689943015 ] ] ] } },
{ "type": "Feature", "properties": { "PERIMETER": "169.63 m", "ENCLOSED_AREA": "0.001795 sq km", "LENGTH": "44.776 m", "宽度": "40.04 m", "name": "综合体北二门" }, "geometry": { "type": "Polygon", "coordinates": [ [ [ 113.645746232217206, 22.58093427554542 ], [ 113.646181576008132, 22.580927101341128 ], [ 113.646174667160963, 22.580565582564571 ], [ 113.645739324503452, 22.580572756641622 ], [ 113.645746232217206, 22.58093427554542 ] ] ] } },
{ "type": "Feature", "properties": { "PERIMETER": "224.74 m", "ENCLOSED_AREA": "0.002964 sq km", "LENGTH": "70.178 m", "宽度": "42.193 m", "name": "综合体北三门" }, "geometry": { "type": "Polygon", "coordinates": [ [ [ 113.647490042715404, 22.582565929402524 ], [ 113.647900274774045, 22.582559164212547 ], [ 113.647888156980315, 22.581925535528402 ], [ 113.647477926793698, 22.58193230050809 ], [ 113.647490042715404, 22.582565929402524 ] ] ] } },
{ "type": "Feature", "properties": { "PERIMETER": "90.413 m", "ENCLOSED_AREA": "0.000501 sq km", "LENGTH": "25.832 m", "宽度": "19.374 m", "name": "综合体北五门" }, "geometry": { "type": "Polygon", "coordinates": [ [ [ 113.649886765047441, 22.584287886636396 ], [ 113.650137930184144, 22.584283740762071 ], [ 113.650134581628549, 22.584108812958458 ], [ 113.649883416808308, 22.58411295879721 ], [ 113.649886765047441, 22.584287886636396 ] ] ] } },
{ "type": "Feature", "properties": { "PERIMETER": "274.68 m", "ENCLOSED_AREA": "0.004512 sq km", "LENGTH": "83.094 m", "宽度": "54.248 m", "name": "综合体北六门" }, "geometry": { "type": "Polygon", "coordinates": [ [ [ 113.651432760091694, 22.585425025741269 ], [ 113.652240680022587, 22.585411680038721 ], [ 113.65225006410877, 22.58590147696097 ], [ 113.651442141327479, 22.585914822984162 ], [ 113.651432760091694, 22.585425025741269 ] ] ] } },
{ "type": "Feature", "properties": { "PERIMETER": "165.33 m", "ENCLOSED_AREA": "0.001628 sq km", "LENGTH": "50.373 m", "宽度": "32.29 m", "name": "综合体东一门" }, "geometry": { "type": "Polygon", "coordinates": [ [ [ 113.652933219429542, 22.584840292119317 ], [ 113.653247176316214, 22.58483510364184 ], [ 113.653238459696794, 22.584380292523399 ], [ 113.652924503838619, 22.584385480885121 ], [ 113.652933219429542, 22.584840292119317 ] ] ] } },
{ "type": "Feature", "properties": { "PERIMETER": "167.05 m", "ENCLOSED_AREA": "0.001387 sq km", "LENGTH": "60.706 m", "宽度": "22.819 m", "name": "综合体南一门" }, "geometry": { "type": "Polygon", "coordinates": [ [ [ 113.652468649157399, 22.579497380906645 ], [ 113.653058865490848, 22.579487629949359 ], [ 113.653054918227383, 22.579281604235138 ], [ 113.652464702769564, 22.579291355093858 ], [ 113.652468649157399, 22.579497380906645 ] ] ] } },
{ "type": "Feature", "properties": { "PERIMETER": "126.87 m", "ENCLOSED_AREA": "0.000925 sq km", "LENGTH": "40.758 m", "宽度": "22.675 m", "name": "综合体南二门" }, "geometry": { "type": "Polygon", "coordinates": [ [ [ 113.650989253673259, 22.578105313569019 ], [ 113.651209710817568, 22.57810167386247 ], [ 113.651202665782691, 22.577733677626767 ], [ 113.650982209222519, 22.577737317267598 ], [ 113.650989253673259, 22.578105313569019 ] ] ] } },
{ "type": "Feature", "properties": { "PERIMETER": "191.73 m", "ENCLOSED_AREA": "0.00227 sq km", "LENGTH": "53.387 m", "宽度": "42.48 m", "name": "综合体西一门" }, "geometry": { "type": "Polygon", "coordinates": [ [ [ 113.647894419169191, 22.576401357849907 ], [ 113.648307423412632, 22.576394547352248 ], [ 113.648298206307715, 22.575912522872333 ], [ 113.647885203497594, 22.575919333208901 ], [ 113.647894419169191, 22.576401357849907 ] ] ] } },
{ "type": "Feature", "properties": { "PERIMETER": "157.86 m", "ENCLOSED_AREA": "0.001556 sq km", "LENGTH": "41.332 m", "宽度": "37.6 m", "name": "综合体西二门" }, "geometry": { "type": "Polygon", "coordinates": [ [ [ 113.647054307310313, 22.57728364483221 ], [ 113.647456152111019, 22.577277020272142 ], [ 113.647449662271484, 22.576937529718816 ], [ 113.647047818453061, 22.57694415416853 ], [ 113.647054307310313, 22.57728364483221 ] ] ] } },
{ "type": "Feature", "properties": { "PERIMETER": "94.145 m", "ENCLOSED_AREA": "0.000555 sq km", "LENGTH": "23.536 m", "宽度": "23.536 m", "name": "P10-1出入口" }, "geometry": { "type": "Polygon", "coordinates": [ [ [ 113.649577903965337, 22.588293670459517 ], [ 113.649806749989366, 22.588289892930213 ], [ 113.649802681825349, 22.588077388090973 ], [ 113.64957383615166, 22.588081165580906 ], [ 113.649577903965337, 22.588293670459517 ] ] ] } },
{ "type": "Feature", "properties": { "PERIMETER": "88.978 m", "ENCLOSED_AREA": "0.0004928 sq km", "LENGTH": "23.823 m", "宽度": "20.666 m", "name": "P10-2出入口" }, "geometry": { "type": "Polygon", "coordinates": [ [ [ 113.648307543849796, 22.590328884951873 ], [ 113.648539184321208, 22.590325062859669 ], [ 113.648535613622386, 22.590138473100321 ], [ 113.648303973462362, 22.590142295157552 ], [ 113.648307543849796, 22.590328884951873 ] ] ] } },
{ "type": "Feature", "properties": { "PERIMETER": "102.18 m", "ENCLOSED_AREA": "0.000635 sq km", "LENGTH": "29.851 m", "宽度": "21.24 m", "name": "P10-3出入口" }, "geometry": { "type": "Polygon", "coordinates": [ [ [ 113.647934441405425, 22.590088767831194 ], [ 113.648224689283694, 22.590083979373048 ], [ 113.648221019878292, 22.589892206510093 ], [ 113.64793077240104, 22.589896994923198 ], [ 113.647934441405425, 22.590088767831194 ] ] ] } },
{ "type": "Feature", "properties": { "PERIMETER": "102.18 m", "ENCLOSED_AREA": "0.000653 sq km", "LENGTH": "26.119 m", "宽度": "24.971 m", "name": "P9-1出入口" }, "geometry": { "type": "Polygon", "coordinates": [ [ [ 113.651086858698761, 22.58727589027346 ], [ 113.651340819789169, 22.58727169591036 ], [ 113.651336501287105, 22.587046233711074 ], [ 113.651082540609181, 22.587050428027787 ], [ 113.651086858698761, 22.58727589027346 ] ] ] } },
{ "type": "Feature", "properties": { "PERIMETER": "82.664 m", "ENCLOSED_AREA": "0.0004193 sq km", "LENGTH": "23.536 m", "宽度": "17.796 m", "name": "P9-2出入口" }, "geometry": { "type": "Polygon", "coordinates": [ [ [ 113.649915473626663, 22.587917393331018 ], [ 113.650144318966298, 22.587913615380263 ], [ 113.650141242698254, 22.587752941026721 ], [ 113.649912397623496, 22.587756718947709 ], [ 113.649915473626663, 22.587917393331018 ] ] ] } },
{ "type": "Feature", "properties": { "PERIMETER": "90.7 m", "ENCLOSED_AREA": "0.000508 sq km", "LENGTH": "25.258 m", "宽度": "20.092 m", "name": "P9-3出入口" }, "geometry": { "type": "Polygon", "coordinates": [ [ [ 113.649615432466376, 22.587701997091074 ], [ 113.649861022262982, 22.587697943187369 ], [ 113.649857549467001, 22.58751653661232 ], [ 113.649611959991361, 22.587520590479954 ], [ 113.649615432466376, 22.587701997091074 ] ] ] } },
{ "type": "Feature", "properties": { "PERIMETER": "96.441 m", "ENCLOSED_AREA": "0.000582 sq km", "LENGTH": "24.397 m", "宽度": "23.823 m", "name": "P8-1出入口" }, "geometry": { "type": "Polygon", "coordinates": [ [ [ 113.650972750244364, 22.585836433651227 ], [ 113.651209964206316, 22.585832516256286 ], [ 113.651205844749626, 22.585617420073948 ], [ 113.650968631155209, 22.585621337427561 ], [ 113.650972750244364, 22.585836433651227 ] ] ] } },
{ "type": "Feature", "properties": { "PERIMETER": "93.57 m", "ENCLOSED_AREA": "0.000544 sq km", "LENGTH": "25.258 m", "宽度": "21.527 m", "name": "P8-2出入口" }, "geometry": { "type": "Polygon", "coordinates": [ [ [ 113.651367707250301, 22.58692647068634 ], [ 113.651577015269922, 22.586923013507306 ], [ 113.651572646816277, 22.586694959822314 ], [ 113.651363339140516, 22.586698416962669 ], [ 113.651367707250301, 22.58692647068634 ] ] ] } },
{ "type": "Feature", "properties": { "PERIMETER": "57.788 m", "ENCLOSED_AREA": "0.000199 sq km", "LENGTH": "17.604 m", "宽度": "11.29 m", "name": "P6-1出入口" }, "geometry": { "type": "Polygon", "coordinates": [ [ [ 113.647279909013292, 22.576458737290913 ], [ 113.647389671517956, 22.576456927812544 ], [ 113.647386633201378, 22.576297980558696 ], [ 113.647276870822338, 22.576299790022954 ], [ 113.647279909013292, 22.576458737290913 ] ] ] } },
{ "type": "Feature", "properties": { "PERIMETER": "42.863 m", "ENCLOSED_AREA": "0.000114 sq km", "LENGTH": "11.672 m", "宽度": "9.759 m", "name": "P6-2出入口" }, "geometry": { "type": "Polygon", "coordinates": [ [ [ 113.645172803651946, 22.576920333042068 ], [ 113.645267683583853, 22.576918770134956 ], [ 113.645265670612687, 22.57681338102006 ], [ 113.645170790752758, 22.576814943919086 ], [ 113.645172803651946, 22.576920333042068 ] ] ] } },
{ "type": "Feature", "properties": { "PERIMETER": "43.883 m", "ENCLOSED_AREA": "0.0001071 sq km", "LENGTH": "14.628 m", "宽度": "7.314 m", "name": "P6-3入口" }, "geometry": { "type": "Polygon", "coordinates": [ [ [ 113.643657124030739, 22.575666462034217 ], [ 113.643799339458397, 22.575664120819404 ], [ 113.64379807891919, 22.575598084564039 ], [ 113.643655863559133, 22.57560042577126 ], [ 113.643657124030739, 22.575666462034217 ] ] ] } },
{ "type": "Feature", "properties": { "PERIMETER": "47.965 m", "ENCLOSED_AREA": "0.0001324 sq km", "LENGTH": "15.393 m", "宽度": "8.59 m", "name": "P6-3出口" }, "geometry": { "type": "Polygon", "coordinates": [ [ [ 113.644486401251442, 22.576365609213148 ], [ 113.644569911840961, 22.576364233974076 ], [ 113.644567257986992, 22.576225250790547 ], [ 113.644483747481033, 22.57622662602024 ], [ 113.644486401251442, 22.576365609213148 ] ] ] } },
{ "type": "Feature", "properties": { "PERIMETER": "35.889 m", "ENCLOSED_AREA": "0.0000747 sq km", "LENGTH": "11.396 m", "宽度": "6.548 m", "name": "P6-4入口" }, "geometry": { "type": "Polygon", "coordinates": [ [ [ 113.647144550460936, 22.575300764672047 ], [ 113.647208216324245, 22.575299715220048 ], [ 113.64720624973485, 22.575196821799135 ], [ 113.647142583918708, 22.575197871245845 ], [ 113.647144550460936, 22.575300764672047 ] ] ] } },
{ "type": "Feature", "properties": { "PERIMETER": "40.651 m", "ENCLOSED_AREA": "0.0000897 sq km", "LENGTH": "13.862 m", "宽度": "6.463 m", "name": "P6-4出口" }, "geometry": { "type": "Polygon", "coordinates": [ [ [ 113.646844741032282, 22.574890162354986 ], [ 113.646907579895327, 22.574889126667422 ], [ 113.646905188022089, 22.574763965230275 ], [ 113.646842349215646, 22.574765000911476 ], [ 113.646844741032282, 22.574890162354986 ] ] ] } },
{ "type": "Feature", "properties": { "PERIMETER": "33.933 m", "ENCLOSED_AREA": "0.0000681 sq km", "LENGTH": "10.461 m", "宽度": "6.506 m", "name": "P7-1入口" }, "geometry": { "type": "Polygon", "coordinates": [ [ [ 113.641572195095705, 22.573919293291976 ], [ 113.641673894554756, 22.573917620505721 ], [ 113.641672774257998, 22.573858878839193 ], [ 113.641571074841963, 22.573860551620626 ], [ 113.641572195095705, 22.573919293291976 ] ] ] } },
{ "type": "Feature", "properties": { "PERIMETER": "33.423 m", "ENCLOSED_AREA": "0.0000697 sq km", "LENGTH": "8.802 m", "宽度": "7.909 m", "name": "P7-1出口" }, "geometry": { "type": "Polygon", "coordinates": [ [ [ 113.642849103197022, 22.574975553220515 ], [ 113.642925998417368, 22.574974287769933 ], [ 113.642924481925903, 22.574894813841368 ], [ 113.642847586749554, 22.574896079287015 ], [ 113.642849103197022, 22.574975553220515 ] ] ] } },
{ "type": "Feature", "properties": { "PERIMETER": "39.801 m", "ENCLOSED_AREA": "0.0000971 sq km", "LENGTH": "11.354 m", "宽度": "8.547 m", "name": "P7-2出口" }, "geometry": { "type": "Polygon", "coordinates": [ [ [ 113.641225040914208, 22.57363811531976 ], [ 113.641308136669181, 22.573636748731367 ], [ 113.641306181941417, 22.573534238730051 ], [ 113.641223086247777, 22.573535605311569 ], [ 113.641225040914208, 22.57363811531976 ] ] ] } },
{ "type": "Feature", "properties": { "PERIMETER": "39.546 m", "ENCLOSED_AREA": "0.0000974 sq km", "LENGTH": "10.588 m", "宽度": "9.185 m", "name": "P7-2入口" }, "geometry": { "type": "Polygon", "coordinates": [ [ [ 113.639501830399595, 22.572206658434851 ], [ 113.639591126532366, 22.57220519090593 ], [ 113.639589304896163, 22.572109591541501 ], [ 113.639500008824825, 22.572111059063541 ], [ 113.639501830399595, 22.572206658434851 ] ] ] } }
]
}
